{
  "type": "FeatureCollection",
  "features": [
    {
      "type": "Feature",
      "properties": {
        "norad_id": 46277,
        "name": "NEMO-HD",
        "group": "resource",
        "lat": -29.787993372479843,
        "lon": 56.876614802128515,
        "alt_km": 450.61978419501156,
        "timestamp": "2025-12-19T16:54:43.908833+00:00",
        "meta_object_name": "NEMO-HD",
        "meta_object_id": "2020-061F",
        "meta_epoch": "2025-12-19T06:07:45.869664",
        "meta_mean_motion": 15.40456939,
        "meta_eccentricity": 0.00014669,
        "meta_inclination": 97.2207,
        "meta_ra_of_asc_node": 52.271,
        "meta_arg_of_pericenter": 52.3145,
        "meta_mean_anomaly": 307.8234,
        "meta_ephemeris_type": 0,
        "meta_classification_type": "U",
        "meta_norad_cat_id": 46277,
        "meta_element_set_no": 999,
        "meta_rev_at_epoch": 29424,
        "meta_bstar": 0.00020365625,
        "meta_mean_motion_dot": 8.166e-05,
        "meta_mean_motion_ddot": 0,
        "tle_line1": "1 46277U 20061F   25353.25539201  .00008166  00000+0  20366-3 0  9990",
        "tle_line2": "2 46277  97.2207  52.2710 0001466  52.3145 307.8234 15.40456939294243"
      },
      "geometry": {
        "type": "Point",
        "coordinates": [
          56.876614802128515,
          -29.787993372479843
        ]
      }
    },
    {
      "type": "Feature",
      "properties": {
        "norad_id": 46984,
        "name": "SENTINEL-6A",
        "group": "resource",
        "lat": 5.701203650559417,
        "lon": -34.70254871154163,
        "alt_km": 1339.4240238845205,
        "timestamp": "2025-12-19T16:54:43.908843+00:00",
        "meta_object_name": "SENTINEL-6A",
        "meta_object_id": "2020-086A",
        "meta_epoch": "2025-12-19T02:53:28.162176",
        "meta_mean_motion": 12.80930822,
        "meta_eccentricity": 0.00077124,
        "meta_inclination": 66.0393,
        "meta_ra_of_asc_node": 149.0549,
        "meta_arg_of_pericenter": 269.3244,
        "meta_mean_anomaly": 90.6888,
        "meta_ephemeris_type": 0,
        "meta_classification_type": "U",
        "meta_norad_cat_id": 46984,
        "meta_element_set_no": 999,
        "meta_rev_at_epoch": 23726,
        "meta_bstar": -2.1643773e-05,
        "meta_mean_motion_dot": -6.6e-07,
        "meta_mean_motion_ddot": 0,
        "tle_line1": "1 46984U 20086A   25353.12046484 -.00000066  00000+0 -21644-4 0  9998",
        "tle_line2": "2 46984  66.0393 149.0549 0007712 269.3244  90.6888 12.80930822237263"
      },
      "geometry": {
        "type": "Point",
        "coordinates": [
          -34.70254871154163,
          5.701203650559417
        ]
      }
    },
    {
      "type": "Feature",
      "properties": {
        "norad_id": 48079,
        "name": "GAOFEN-12 02",
        "group": "resource",
        "lat": 16.54476622101686,
        "lon": -14.712369973716228,
        "alt_km": 626.9384194245749,
        "timestamp": "2025-12-19T16:54:43.908854+00:00",
        "meta_object_name": "GAOFEN-12 02",
        "meta_object_id": "2021-026A",
        "meta_epoch": "2025-12-19T07:06:20.875680",
        "meta_mean_motion": 14.80682608,
        "meta_eccentricity": 0.00035997,
        "meta_inclination": 97.9853,
        "meta_ra_of_asc_node": 347.2709,
        "meta_arg_of_pericenter": 88.0868,
        "meta_mean_anomaly": 272.0757,
        "meta_ephemeris_type": 0,
        "meta_classification_type": "U",
        "meta_norad_cat_id": 48079,
        "meta_element_set_no": 999,
        "meta_rev_at_epoch": 25514,
        "meta_bstar": 5.438468e-05,
        "meta_mean_motion_dot": 3.65e-06,
        "meta_mean_motion_ddot": 0,
        "tle_line1": "1 48079U 21026A   25353.29607495  .00000365  00000+0  54385-4 0  9991",
        "tle_line2": "2 48079  97.9853 347.2709 0003599  88.0868 272.0757 14.80682608255147"
      },
      "geometry": {
        "type": "Point",
        "coordinates": [
          -14.712369973716228,
          16.54476622101686
        ]
      }
    },
    {
      "type": "Feature",
      "properties": {
        "norad_id": 48268,
        "name": "PLEIADES NEO 3",
        "group": "resource",
        "lat": 69.76667252186955,
        "lon": -91.83792303680478,
        "alt_km": 616.4225870041146,
        "timestamp": "2025-12-19T16:54:43.908864+00:00",
        "meta_object_name": "PLEIADES NEO 3",
        "meta_object_id": "2021-034A",
        "meta_epoch": "2025-12-19T06:41:56.338656",
        "meta_mean_motion": 14.81671723,
        "meta_eccentricity": 0.0001318,
        "meta_inclination": 97.8951,
        "meta_ra_of_asc_node": 65.6266,
        "meta_arg_of_pericenter": 90.0597,
        "meta_mean_anomaly": 270.0767,
        "meta_ephemeris_type": 0,
        "meta_classification_type": "U",
        "meta_norad_cat_id": 48268,
        "meta_element_set_no": 999,
        "meta_rev_at_epoch": 25101,
        "meta_bstar": 8.4114115e-05,
        "meta_mean_motion_dot": 6.1e-06,
        "meta_mean_motion_ddot": 0,
        "tle_line1": "1 48268U 21034A   25353.27912429  .00000610  00000+0  84114-4 0  9990",
        "tle_line2": "2 48268  97.8951  65.6266 0001318  90.0597 270.0767 14.81671723251011"
      },
      "geometry": {
        "type": "Point",
        "coordinates": [
          -91.83792303680478,
          69.76667252186955
        ]
      }
    },
    {
      "type": "Feature",
      "properties": {
        "norad_id": 49070,
        "name": "PLEIADES NEO 4",
        "group": "resource",
        "lat": -69.77850459854889,
        "lon": 88.17320321678493,
        "alt_km": 632.2058198858549,
        "timestamp": "2025-12-19T16:54:43.908874+00:00",
        "meta_object_name": "PLEIADES NEO 4",
        "meta_object_id": "2021-073E",
        "meta_epoch": "2025-12-19T05:53:17.815776",
        "meta_mean_motion": 14.81674999,
        "meta_eccentricity": 0.00013207,
        "meta_inclination": 97.8952,
        "meta_ra_of_asc_node": 65.5893,
        "meta_arg_of_pericenter": 92.9573,
        "meta_mean_anomaly": 267.1791,
        "meta_ephemeris_type": 0,
        "meta_classification_type": "U",
        "meta_norad_cat_id": 49070,
        "meta_element_set_no": 999,
        "meta_rev_at_epoch": 23472,
        "meta_bstar": 7.7654411e-05,
        "meta_mean_motion_dot": 5.59e-06,
        "meta_mean_motion_ddot": 0,
        "tle_line1": "1 49070U 21073E   25353.24534509  .00000559  00000+0  77654-4 0  9994",
        "tle_line2": "2 49070  97.8952  65.5893 0001320  92.9573 267.1791 14.81674999234728"
      },
      "geometry": {
        "type": "Point",
        "coordinates": [
          88.17320321678493,
          -69.77850459854889
        ]
      }
    },
    {
      "type": "Feature",
      "properties": {
        "norad_id": 49260,
        "name": "LANDSAT 9",
        "group": "resource",
        "lat": 49.57066104818489,
        "lon": 51.95935513825022,
        "alt_km": 697.4134855636648,
        "timestamp": "2025-12-19T16:54:43.908884+00:00",
        "meta_object_name": "LANDSAT 9",
        "meta_object_id": "2021-088A",
        "meta_epoch": "2025-12-19T05:08:44.723328",
        "meta_mean_motion": 14.57104319,
        "meta_eccentricity": 0.00011128,
        "meta_inclination": 98.2087,
        "meta_ra_of_asc_node": 61.2314,
        "meta_arg_of_pericenter": 90.8909,
        "meta_mean_anomaly": 269.2417,
        "meta_ephemeris_type": 0,
        "meta_classification_type": "U",
        "meta_norad_cat_id": 49260,
        "meta_element_set_no": 999,
        "meta_rev_at_epoch": 22479,
        "meta_bstar": 8.1995753e-05,
        "meta_mean_motion_dot": 3.24e-06,
        "meta_mean_motion_ddot": 0,
        "tle_line1": "1 49260U 21088A   25353.21440652  .00000324  00000+0  81996-4 0  9997",
        "tle_line2": "2 49260  98.2087  61.2314 0001112  90.8909 269.2417 14.57104319224794"
      },
      "geometry": {
        "type": "Point",
        "coordinates": [
          51.95935513825022,
          49.57066104818489
        ]
      }
    },
    {
      "type": "Feature",
      "properties": {
        "norad_id": 51444,
        "name": "CSG-2",
        "group": "resource",
        "lat": -26.477811578505793,
        "lon": 178.87767206921285,
        "alt_km": 628.6200247044717,
        "timestamp": "2025-12-19T16:54:43.908894+00:00",
        "meta_object_name": "CSG-2",
        "meta_object_id": "2022-008A",
        "meta_epoch": "2025-12-19T07:18:39.872160",
        "meta_mean_motion": 14.8214896,
        "meta_eccentricity": 0.00014619,
        "meta_inclination": 97.8798,
        "meta_ra_of_asc_node": 174.5282,
        "meta_arg_of_pericenter": 83.7149,
        "meta_mean_anomaly": 276.4231,
        "meta_ephemeris_type": 0,
        "meta_classification_type": "U",
        "meta_norad_cat_id": 51444,
        "meta_element_set_no": 999,
        "meta_rev_at_epoch": 20994,
        "meta_bstar": 1.545079e-06,
        "meta_mean_motion_dot": -4e-07,
        "meta_mean_motion_ddot": 0,
        "tle_line1": "1 51444U 22008A   25353.30462815 -.00000040  00000+0  15451-5 0  9992",
        "tle_line2": "2 51444  97.8798 174.5282 0001461  83.7149 276.4231 14.82148960209943"
      },
      "geometry": {
        "type": "Point",
        "coordinates": [
          178.87767206921285,
          -26.477811578505793
        ]
      }
    }
  ]
}